CTC1_L_00660001-01
1 65564U 24796B   26070.40841435  .00000000  00000+0  00000-0 0  9997
2 65564  55.0000   0.0000 0000000   0.0000   0.0000  3.21836079    18
CTC1_L_00660001-02
1 65565U 25806LS  26070.40841435  .00000000  00000+0  00000-0 0  9991
2 65565  55.0000   0.0000 0000000   0.0000  36.0000  3.21836079    18
CTC1_L_00660001-03
1 65566U 22272YJ  26070.40841435  .00000000  00000+0  00000-0 0  9996
2 65566  55.0000   0.0000 0000000   0.0000  72.0000  3.21836079    19
CTC1_L_00660001-04
1 65567U 22442ON  26070.40841435  .00000000  00000+0  00000-0 0  9996
2 65567  55.0000   0.0000 0000000   0.0000 108.0000  3.21836079    10
CTC1_L_00660001-05
1 65568U 25796NH  26070.40841435  .00000000  00000+0  00000-0 0  9992
2 65568  55.0000   0.0000 0000000   0.0000 144.0000  3.21836079    11
CTC1_L_00660001-06
1 65569U 26286JM  26070.40841435  .00000000  00000+0  00000-0 0  9998
2 65569  55.0000   0.0000 0000000   0.0000 180.0000  3.21836079    12
CTC1_L_00660001-07
1 65570U 26661YP  26070.40841435  .00000000  00000+0  00000-0 0  9997
2 65570  55.0000   0.0000 0000000   0.0000 216.0000  3.21836079    14
CTC1_L_00660001-08
1 65571U 25820BQ  26070.40841435  .00000000  00000+0  00000-0 0  9994
2 65571  55.0000   0.0000 0000000   0.0000 252.0000  3.21836079    15
CTC1_L_00660001-09
1 65572U 26692FE  26070.40841435  .00000000  00000+0  00000-0 0  9993
2 65572  55.0000   0.0000 0000000   0.0000 288.0000  3.21836079    15
CTC1_L_00660001-10
1 65573U 25350RK  26070.40841435  .00000000  00000+0  00000-0 0  9994
2 65573  55.0000   0.0000 0000000   0.0000 324.0000  3.21836079    17
CTC1_L_00660002-01
1 65574U 26269TL  26070.40841435  .00000000  00000+0  00000-0 0  9995
2 65574  55.0000  30.0000 0000000   0.0000  12.0000  3.21836079    15
CTC1_L_00660002-02
1 65575U 23629UK  26070.40841435  .00000000  00000+0  00000-0 0  9993
2 65575  55.0000  30.0000 0000000   0.0000  48.0000  3.21836079    15
CTC1_L_00660002-03
1 65576U 24929GF  26070.40841435  .00000000  00000+0  00000-0 0  9998
2 65576  55.0000  30.0000 0000000   0.0000  84.0000  3.21836079    16
CTC1_L_00660002-04
1 65577U 25156YD  26070.40841435  .00000000  00000+0  00000-0 0  9992
2 65577  55.0000  30.0000 0000000   0.0000 120.0000  3.21836079    18
CTC1_L_00660002-05
1 65578U 23918NG  26070.40841435  .00000000  00000+0  00000-0 0  9997
2 65578  55.0000  30.0000 0000000   0.0000 156.0000  3.21836079    18
CTC1_L_00660002-06
1 65579U 26404BE  26070.40841435  .00000000  00000+0  00000-0 0  9991
2 65579  55.0000  30.0000 0000000   0.0000 192.0000  3.21836079    19
CTC1_L_00660002-07
1 65580U 24686DF  26070.40841435  .00000000  00000+0  00000-0 0  9993
2 65580  55.0000  30.0000 0000000   0.0000 228.0000  3.21836079    11
CTC1_L_00660002-08
1 65581U 22969CZ  26070.40841435  .00000000  00000+0  00000-0 0  9996
2 65581  55.0000  30.0000 0000000   0.0000 264.0000  3.21836079    12
CTC1_L_00660002-09
1 65582U 26938EG  26070.40841435  .00000000  00000+0  00000-0 0  9997
2 65582  55.0000  30.0000 0000000   0.0000 300.0000  3.21836079    14
CTC1_L_00660002-10
1 65583U 24920FU  26070.40841435  .00000000  00000+0  00000-0 0  9997
2 65583  55.0000  30.0000 0000000   0.0000 336.0000  3.21836079    14
CTC1_L_00660003-01
1 65584U 22033GA  26070.40841435  .00000000  00000+0  00000-0 0  9991
2 65584  55.0000  60.0000 0000000   0.0000  24.0000  3.21836079    12
CTC1_L_00660003-02
1 65585U 22915IM  26070.40841435  .00000000  00000+0  00000-0 0  9991
2 65585  55.0000  60.0000 0000000   0.0000  60.0000  3.21836079    13
CTC1_L_00660003-03
1 65586U 23921ZM  26070.40841435  .00000000  00000+0  00000-0 0  9990
2 65586  55.0000  60.0000 0000000   0.0000  96.0000  3.21836079    13
CTC1_L_00660003-04
1 65587U 26148IB  26070.40841435  .00000000  00000+0  00000-0 0  9995
2 65587  55.0000  60.0000 0000000   0.0000 132.0000  3.21836079    15
CTC1_L_00660003-05
1 65588U 26911NL  26070.40841435  .00000000  00000+0  00000-0 0  9994
2 65588  55.0000  60.0000 0000000   0.0000 168.0000  3.21836079    15
CTC1_L_00660003-06
1 65589U 25597ID  26070.40841435  .00000000  00000+0  00000-0 0  9994
2 65589  55.0000  60.0000 0000000   0.0000 204.0000  3.21836079    17
CTC1_L_00660003-07
1 65590U 23670QY  26070.40841435  .00000000  00000+0  00000-0 0  9996
2 65590  55.0000  60.0000 0000000   0.0000 240.0000  3.21836079    19
CTC1_L_00660003-08
1 65591U 26327OH  26070.40841435  .00000000  00000+0  00000-0 0  9999
2 65591  55.0000  60.0000 0000000   0.0000 276.0000  3.21836079    19
CTC1_L_00660003-09
1 65592U 24201CR  26070.40841435  .00000000  00000+0  00000-0 0  9999
2 65592  55.0000  60.0000 0000000   0.0000 312.0000  3.21836079    11
CTC1_L_00660003-10
1 65593U 24399EW  26070.40841435  .00000000  00000+0  00000-0 0  9998
2 65593  55.0000  60.0000 0000000   0.0000 348.0000  3.21836079    11
CTC1_L_00660004-01
1 65594U 22486IO  26070.40841435  .00000000  00000+0  00000-0 0  9994
2 65594  55.0000  90.0000 0000000   0.0000  36.0000  3.21836079    19
CTC1_L_00660004-02
1 65595U 26178IN  26070.40841435  .00000000  00000+0  00000-0 0  9997
2 65595  55.0000  90.0000 0000000   0.0000  72.0000  3.21836079    10
CTC1_L_00660004-03
1 65596U 25990HL  26070.40841435  .00000000  00000+0  00000-0 0  9999
2 65596  55.0000  90.0000 0000000   0.0000 108.0000  3.21836079    11
CTC1_L_00660004-04
1 65597U 24704DW  26070.40841435  .00000000  00000+0  00000-0 0  9992
2 65597  55.0000  90.0000 0000000   0.0000 144.0000  3.21836079    12
CTC1_L_00660004-05
1 65598U 22475HT  26070.40841435  .00000000  00000+0  00000-0 0  9996
2 65598  55.0000  90.0000 0000000   0.0000 180.0000  3.21836079    13
CTC1_L_00660004-06
1 65599U 25962VK  26070.40841435  .00000000  00000+0  00000-0 0  9991
2 65599  55.0000  90.0000 0000000   0.0000 216.0000  3.21836079    14
CTC1_L_00660004-07
1 65600U 26970YD  26070.40841435  .00000000  00000+0  00000-0 0  9994
2 65600  55.0000  90.0000 0000000   0.0000 252.0000  3.21836079    17
CTC1_L_00660004-08
1 65601U 26855IG  26070.40841435  .00000000  00000+0  00000-0 0  9997
2 65601  55.0000  90.0000 0000000   0.0000 288.0000  3.21836079    17
CTC1_L_00660004-09
1 65602U 22233QP  26070.40841435  .00000000  00000+0  00000-0 0  9994
2 65602  55.0000  90.0000 0000000   0.0000 324.0000  3.21836079    19
CTC1_L_00660004-10
1 65603U 22646JD  26070.40841435  .00000000  00000+0  00000-0 0  9993
2 65603  55.0000  90.0000 0000000   0.0000   0.0000  3.21836079    11
CTC1_L_00660005-01
1 65604U 24356YP  26070.40841435  .00000000  00000+0  00000-0 0  9994
2 65604  55.0000 120.0000 0000000   0.0000  48.0000  3.21836079    18
CTC1_L_00660005-02
1 65605U 23343IV  26070.40841435  .00000000  00000+0  00000-0 0  9990
2 65605  55.0000 120.0000 0000000   0.0000  84.0000  3.21836079    19
CTC1_L_00660005-03
1 65606U 24035BX  26070.40841435  .00000000  00000+0  00000-0 0  9990
2 65606  55.0000 120.0000 0000000   0.0000 120.0000  3.21836079    11
CTC1_L_00660005-04
1 65607U 26613AW  26070.40841435  .00000000  00000+0  00000-0 0  9995
2 65607  55.0000 120.0000 0000000   0.0000 156.0000  3.21836079    11
CTC1_L_00660005-05
1 65608U 26836JI  26070.40841435  .00000000  00000+0  00000-0 0  9993
2 65608  55.0000 120.0000 0000000   0.0000 192.0000  3.21836079    12
CTC1_L_00660005-06
1 65609U 24699LQ  26070.40841435  .00000000  00000+0  00000-0 0  9999
2 65609  55.0000 120.0000 0000000   0.0000 228.0000  3.21836079    13
CTC1_L_00660005-07
1 65610U 26936KA  26070.40841435  .00000000  00000+0  00000-0 0  9997
2 65610  55.0000 120.0000 0000000   0.0000 264.0000  3.21836079    15
CTC1_L_00660005-08
1 65611U 22753XT  26070.40841435  .00000000  00000+0  00000-0 0  9991
2 65611  55.0000 120.0000 0000000   0.0000 300.0000  3.21836079    17
CTC1_L_00660005-09
1 65612U 25680HL  26070.40841435  .00000000  00000+0  00000-0 0  9994
2 65612  55.0000 120.0000 0000000   0.0000 336.0000  3.21836079    17
CTC1_L_00660005-10
1 65613U 25489JR  26070.40841435  .00000000  00000+0  00000-0 0  9992
2 65613  55.0000 120.0000 0000000   0.0000  12.0000  3.21836079    19
CTC1_L_00660006-01
1 65614U 25765WW  26070.40841435  .00000000  00000+0  00000-0 0  9990
2 65614  55.0000 150.0000 0000000   0.0000  60.0000  3.21836079    16
CTC1_L_00660006-02
1 65615U 24761R   26070.40841435  .00000000  00000+0  00000-0 0  9996
2 65615  55.0000 150.0000 0000000   0.0000  96.0000  3.21836079    16
CTC1_L_00660006-03
1 65616U 25030BZ  26070.40841435  .00000000  00000+0  00000-0 0  9997
2 65616  55.0000 150.0000 0000000   0.0000 132.0000  3.21836079    18
CTC1_L_00660006-04
1 65617U 22145ZA  26070.40841435  .00000000  00000+0  00000-0 0  9992
2 65617  55.0000 150.0000 0000000   0.0000 168.0000  3.21836079    18
CTC1_L_00660006-05
1 65618U 23189LT  26070.40841435  .00000000  00000+0  00000-0 0  9992
2 65618  55.0000 150.0000 0000000   0.0000 204.0000  3.21836079    10
CTC1_L_00660006-06
1 65619U 22031JS  26070.40841435  .00000000  00000+0  00000-0 0  9998
2 65619  55.0000 150.0000 0000000   0.0000 240.0000  3.21836079    11
CTC1_L_00660006-07
1 65620U 26894EL  26070.40841435  .00000000  00000+0  00000-0 0  9991
2 65620  55.0000 150.0000 0000000   0.0000 276.0000  3.21836079    12
CTC1_L_00660006-08
1 65621U 23467QV  26070.40841435  .00000000  00000+0  00000-0 0  9995
2 65621  55.0000 150.0000 0000000   0.0000 312.0000  3.21836079    14
CTC1_L_00660006-09
1 65622U 23809EJ  26070.40841435  .00000000  00000+0  00000-0 0  9996
2 65622  55.0000 150.0000 0000000   0.0000 348.0000  3.21836079    14
CTC1_L_00660006-10
1 65623U 22857WB  26070.40841435  .00000000  00000+0  00000-0 0  9999
2 65623  55.0000 150.0000 0000000   0.0000  24.0000  3.21836079    16
CTC1_L_00660007-01
1 65624U 22900TE  26070.40841435  .00000000  00000+0  00000-0 0  9999
2 65624  55.0000 180.0000 0000000   0.0000  72.0000  3.21836079    13
CTC1_L_00660007-02
1 65625U 24672IA  26070.40841435  .00000000  00000+0  00000-0 0  9998
2 65625  55.0000 180.0000 0000000   0.0000 108.0000  3.21836079    14
